OBJECT_NAME,OBJECT_ID,EPOCH,MEAN_MOTION,ECCENTRICITY,INCLINATION,RA_OF_ASC_NODE,ARG_OF_PERICENTER,MEAN_ANOMALY,EPHEMERIS_TYPE,CLASSIFICATION_TYPE,NORAD_CAT_ID,ELEMENT_SET_NO,REV_AT_EPOCH,BSTAR,MEAN_MOTION_DOT,MEAN_MOTION_DDOT
STARLINK-37198,2026-063G,2026-05-20T06:00:02.000160,15.33371660,.00015911,97.2851,282.9548,47.6300,65.5841,0,U,68386,999,592,.25434931E-2,.82753E-3,0
STARLINK-37223,2026-063H,2026-05-20T06:00:02.000160,15.38476880,.00016468,97.2857,282.8732,66.2439,201.7423,0,U,68387,999,600,-.63417861E-1,-.2163001E-1,0
STARLINK-37203,2026-063J,2026-05-20T06:00:02.000160,15.33409267,.00015776,97.2864,282.9087,79.7853,288.5050,0,U,68388,999,602,.18209803E-2,.59109E-3,0
STARLINK-37197,2026-063K,2026-05-20T06:00:02.000160,15.37449367,.00020166,97.2887,282.9354,81.5877,349.7982,0,U,68389,999,599,.18793343E-2,.69475E-3,0
STARLINK-37193,2026-063L,2026-05-20T06:00:02.000160,15.82561396,.00044366,97.2874,283.9620,266.5941,42.1683,0,U,68390,999,599,.35588702E-3,.74404E-3,0
STARLINK-37216,2026-063M,2026-05-20T06:37:02.417088,15.33442115,.00013513,97.2873,282.8736,90.5121,269.6277,0,U,68391,999,886,.91979146E-4,.2895E-4,0
STARLINK-37215,2026-063N,2026-05-20T06:00:02.000160,15.38038794,.00015999,97.2860,282.8616,89.6998,150.1075,0,U,68392,999,600,-.64846427E-1,-.2178524E-1,0
STARLINK-37184,2026-063P,2026-05-20T06:00:02.000160,15.37671235,.00016406,97.2855,282.9004,64.4050,266.7213,0,U,68393,999,602,-.65467631E-1,-.217374E-1,0
STARLINK-37157,2026-063Q,2026-05-20T07:08:23.109216,15.33478614,.00023958,97.2858,282.9964,48.8051,311.3398,0,U,68394,999,887,.65836548E-3,.21263E-3,0
STARLINK-37172,2026-063R,2026-05-20T06:52:43.113504,15.33447659,.00007538,97.2874,282.8590,81.7957,278.3371,0,U,68395,999,886,.27816015E-3,.8916E-4,0
STARLINK-37190,2026-063S,2026-05-20T07:20:07.533600,15.33449199,.00014402,97.2864,282.9829,81.4004,278.7402,0,U,68396,999,887,.26729052E-3,.8565E-4,0
STARLINK-37194,2026-063T,2026-05-20T06:00:02.000160,15.33396257,.0002028,97.2858,282.8771,74.7300,218.5463,0,U,68397,999,600,.20484479E-2,.66541E-3,0
STARLINK-37220,2026-063U,2026-05-20T06:33:07.174080,15.33442712,.0001539,97.2866,282.8756,95.4970,264.6448,0,U,68398,999,886,.21941797E-3,.7015E-4,0
STARLINK-37187,2026-063V,2026-05-20T06:00:02.000160,15.36330659,.00028769,97.2844,282.9643,84.2962,40.9031,0,U,68399,999,593,-.68716162E-1,-.2184171E-1,0
STARLINK-36235,2026-063W,2026-05-19T22:19:50.017728,15.33420134,.0000901,97.2881,282.5754,102.6238,257.5105,0,U,68400,999,881,.66483E-3,.21432E-3,0
STARLINK-37175,2026-063X,2026-05-20T06:00:02.000160,15.37656899,.00019401,97.2864,282.8382,85.2903,95.8917,0,U,68401,999,590,-.65496964E-1,-.2173869E-1,0
STARLINK-36360,2026-063Y,2026-05-19T22:23:43.658016,15.33463639,.0001208,97.2847,282.5688,65.0112,295.1256,0,U,68402,999,881,.37412E-3,.12029E-3,0
STARLINK-37218,2026-063Z,2026-05-20T03:06:59.497056,15.75258922,.00013352,97.2861,283.5294,75.9846,284.1567,0,U,68403,999,889,.13765044E-2,.210965E-2,0
STARLINK-37188,2026-063AA,2026-05-20T07:12:18.829152,15.33469536,.00013999,97.2863,282.9907,78.1452,281.9947,0,U,68404,999,887,.50186131E-3,.16174E-3,0
SHIYAN-33,2026-064A,2026-05-20T06:37:58.788768,15.23636761,.00151073,97.4624,215.9376,50.5102,309.7468,0,U,68405,999,824,.14950307E-3,.352E-4,0
LPNTSAT-001 (IOD-1),2026-065A,2026-05-20T04:50:31.541280,15.18370779,.00182971,97.4052,21.3016,100.9727,259.3567,0,U,68408,999,801,.89779473E-4,.1785E-4,0
LPNTSAT-002 (IOD-2),2026-065B,2026-05-20T04:41:31.499808,15.18833525,.00159509,97.4036,21.3020,96.5363,263.7688,0,U,68409,999,799,.22861644E-3,.4708E-4,0
XINZHENGCHENG-01,2026-066A,2026-05-20T07:53:23.582688,14.88380858,.00251353,84.9668,245.4628,355.4127,4.6862,0,U,68412,999,758,.32549636E-4,.333E-5,0
XINZHENGCHENG 01,2026-066C,2026-05-20T07:45:30.720672,14.88574137,.00257339,84.9667,245.4576,356.0147,4.0867,0,U,68414,999,758,.63730128E-4,.626E-5,0
TIANSHI-01,2026-066D,2026-05-20T07:48:22.882176,14.88555976,.00248775,84.9664,245.4589,355.6558,4.4445,0,U,68415,999,758,.16518358E-3,.1574E-4,0
TRANSPORTER-16 OBJECT A,2026-067A,2026-05-19T09:00:58.476384,15.19072514,.00033342,97.4537,98.3272,51.7500,308.4034,0,U,68416,999,757,.20792832E-3,.4292E-4,0
JACK-002,2026-067B,2026-05-20T04:02:26.745504,15.19002449,.00033117,97.4558,99.1173,53.8688,306.2852,0,U,68417,999,769,.2297672E-3,.4741E-4,0
OPTISAT,2026-067C,2026-05-19T20:15:43.243200,15.18698067,.0003838,97.4575,98.7978,59.2020,300.9591,0,U,68418,999,764,.15970099E-3,.3245E-4,0
FEMTO-1,2026-067D,2026-05-19T20:14:55.458816,15.18719446,.0002672,97.4529,98.7700,49.0524,311.0942,0,U,68419,999,764,.963232E-4,.1931E-4,0
ERMIS-2,2026-067E,2026-05-20T03:59:38.069376,15.19193486,.00025105,97.4473,99.0687,55.6537,304.4935,0,U,68420,999,769,.3316028E-3,.6912E-4,0
