STARLINK-37198          
1 68386U 26063G   26140.25002315  .00082753  00000+0  25435-2 0  9994
2 68386  97.2851 282.9548 0001591  47.6300  65.5841 15.33371660  5929
STARLINK-37223          
1 68387U 26063H   26140.25002315 -.02163001  00000+0 -63418-1 0  9997
2 68387  97.2857 282.8732 0001646  66.2439 201.7423 15.38476880  6006
STARLINK-37203          
1 68388U 26063J   26140.25002315  .00059109  00000+0  18210-2 0  9998
2 68388  97.2864 282.9087 0001577  79.7853 288.5050 15.33409267  6022
STARLINK-37197          
1 68389U 26063K   26140.25002315  .00069475  00000+0  18793-2 0  9992
2 68389  97.2887 282.9354 0002016  81.5877 349.7982 15.37449367  5999
STARLINK-37193          
1 68390U 26063L   26140.25002315  .00074404  00000+0  35589-3 0  9995
2 68390  97.2874 283.9620 0004436 266.5941  42.1683 15.82561396  5998
STARLINK-37216          
1 68391U 26063M   26140.27572242  .00002895  00000+0  91979-4 0  9990
2 68391  97.2873 282.8736 0001351  90.5121 269.6277 15.33442115  8869
STARLINK-37215          
1 68392U 26063N   26140.25002315 -.02178524  00000+0 -64846-1 0  9995
2 68392  97.2860 282.8616 0001599  89.6998 150.1075 15.38038794  6001
STARLINK-37184          
1 68393U 26063P   26140.25002315 -.02173740  00000+0 -65468-1 0  9992
2 68393  97.2855 282.9004 0001640  64.4050 266.7213 15.37671235  6027
STARLINK-37157          
1 68394U 26063Q   26140.29748969  .00021263  00000+0  65837-3 0  9999
2 68394  97.2858 282.9964 0002395  48.8051 311.3398 15.33478614  8879
STARLINK-37172          
1 68395U 26063R   26140.28661011  .00008916  00000+0  27816-3 0  9996
2 68395  97.2874 282.8590 0000753  81.7957 278.3371 15.33447659  8866
STARLINK-37190          
1 68396U 26063S   26140.30564275  .00008565  00000+0  26729-3 0  9996
2 68396  97.2864 282.9829 0001440  81.4004 278.7402 15.33449199  8877
STARLINK-37194          
1 68397U 26063T   26140.25002315  .00066541  00000+0  20484-2 0  9992
2 68397  97.2858 282.8771 0002028  74.7300 218.5463 15.33396257  6001
STARLINK-37220          
1 68398U 26063U   26140.27299970  .00007015  00000+0  21942-3 0  9992
2 68398  97.2866 282.8756 0001539  95.4970 264.6448 15.33442712  8862
STARLINK-37187          
1 68399U 26063V   26140.25002315 -.02184171  00000+0 -68716-1 0  9997
2 68399  97.2844 282.9643 0002876  84.2962  40.9031 15.36330659  5934
STARLINK-36235          
1 68400U 26063W   26139.93044002  .00021432  00000+0  66483-3 0  9999
2 68400  97.2881 282.5754 0000901 102.6238 257.5105 15.33420134  8818
STARLINK-37175          
1 68401U 26063X   26140.25002315 -.02173869  00000+0 -65497-1 0  9996
2 68401  97.2864 282.8382 0001940  85.2903  95.8917 15.37656899  5903
STARLINK-36360          
1 68402U 26063Y   26139.93314419  .00012029  00000+0  37412-3 0  9995
2 68402  97.2847 282.5688 0001208  65.0112 295.1256 15.33463639  8814
STARLINK-37218          
1 68403U 26063Z   26140.12985529  .00210965  00000+0  13765-2 0  9998
2 68403  97.2861 283.5294 0001335  75.9846 284.1567 15.75258922  8894
STARLINK-37188          
1 68404U 26063AA  26140.30021793  .00016174  00000+0  50186-3 0  9998
2 68404  97.2863 282.9907 0001399  78.1452 281.9947 15.33469536  8873
SHIYAN-33               
1 68405U 26064A   26140.27637487  .00003520  00000+0  14950-3 0  9999
2 68405  97.4624 215.9376 0015107  50.5102 309.7468 15.23636761  8248
LPNTSAT-001 (IOD-1)     
1 68408U 26065A   26140.20175395  .00001785  00000+0  89779-4 0  9994
2 68408  97.4052  21.3016 0018297 100.9727 259.3567 15.18370779  8015
LPNTSAT-002 (IOD-2)     
1 68409U 26065B   26140.19550347  .00004708  00000+0  22862-3 0  9994
2 68409  97.4036  21.3020 0015950  96.5363 263.7688 15.18833525  7994
XINZHENGCHENG-01        
1 68412U 26066A   26140.32874517  .00000333  00000+0  32550-4 0  9998
2 68412  84.9668 245.4628 0025135 355.4127   4.6862 14.88380858  7587
XINZHENGCHENG 01        
1 68414U 26066C   26140.32327223  .00000626  00000+0  63730-4 0  9996
2 68414  84.9667 245.4576 0025733 356.0147   4.0867 14.88574137  7587
TIANSHI-01              
1 68415U 26066D   26140.32526484  .00001574  00000+0  16518-3 0  9991
2 68415  84.9664 245.4589 0024877 355.6558   4.4445 14.88555976  7584
TRANSPORTER-16 OBJECT A 
1 68416U 26067A   26139.37567681  .00004292  00000+0  20793-3 0  9990
2 68416  97.4537  98.3272 0003334  51.7500 308.4034 15.19072514  7570
JACK-002                
1 68417U 26067B   26140.16836511  .00004741  00000+0  22977-3 0  9996
2 68417  97.4558  99.1173 0003311  53.8688 306.2852 15.19002449  7695
OPTISAT                 
1 68418U 26067C   26139.84425050  .00003245  00000+0  15970-3 0  9995
2 68418  97.4575  98.7978 0003838  59.2020 300.9591 15.18698067  7649
FEMTO-1                 
1 68419U 26067D   26139.84369744  .00001931  00000+0  96323-4 0  9995
2 68419  97.4529  98.7700 0002672  49.0524 311.0942 15.18719446  7641
ERMIS-2                 
1 68420U 26067E   26140.16641284  .00006912  00000+0  33160-3 0  9999
2 68420  97.4473  99.0687 0002510  55.6537 304.4935 15.19193486  7691
